YOTSUBA-KULOVER         
1 65941U 98067XN  26055.46759799  .00147873  00000+0  94563-3 0  9998
2 65941  51.6226 125.5892 0005836 356.4616   3.6342 15.75337039 21413
BOTAN                   
1 65942U 98067XP  26055.53824427  .00823166  33099-3  14997-2 0  9994
2 65942  51.6119 119.2030 0009759  14.1330 345.9951 16.00751802 21503
E-KAGAKU-1              
1 65943U 98067XQ  26055.46986623  .00144724  00000+0  93368-3 0  9992
2 65943  51.6247 125.6186 0006053   5.4532 354.6532 15.75143976 21410
HRC MONOBLOCK CAMERA    
1 66052U 98067XR  26055.45195170  .00043997  00000+0  52279-3 0  9998
2 66052  51.6276 132.2644 0002930  39.4892 320.6315 15.60703861 20323
HTV-X1                  
1 66174U 25241A   26055.86355973  .00009683  00000+0  18823-3 0  9992
2 66174  51.6318 135.7592 0008386 130.0533 230.1192 15.48271528   519
SZ-21 MODULE            
1 66515U 25246C   26055.95298929  .00031159  00000+0  28098-3 0  9991
2 66515  41.4747 281.7034 0001468 289.8220  70.2463 15.67479968 16075
SHENZHOU-22             
1 66645U 25272A   26055.91463741  .00012229  00000+0  15030-3 0  9995
2 66645  41.4667 285.8590 0005551 189.8936 170.1794 15.60082550267640
SOYUZ-MS 28             
1 66664U 25275A   26055.86355973  .00009683  00000+0  18823-3 0  9993
2 66664  51.6318 135.7592 0008386 130.0533 230.1192 15.48271528  1288
DUPLEX                  
1 66906U 98067XS  26055.48204385  .00031856  00000+0  46667-3 0  9993
2 66906  51.6292 135.4660 0001748  74.7440 285.3744 15.55270446 13078
ISS OBJECT XT           
1 66907U 98067XT  26055.38238928  .00113727  00000+0  11135-2 0  9992
2 66907  51.6254 133.2936 0003852   5.2885 354.8151 15.65249808 13094
ISS OBJECT XU           
1 66908U 98067XU  26055.25366959  .00119816  00000+0  11696-2 0  9992
2 66908  51.6250 133.9315 0003914   8.4064 351.6996 15.65299119 13072
SILVERSAT               
1 66909U 98067XV  26055.72173469  .00126399  00000+0  11314-2 0  9998
2 66909  51.6251 131.0565 0004747   5.5520 354.5528 15.67424786 13154
